{
  "type": "FeatureCollection",
  "name": "senegal_regions",
  "crs": {
    "type": "name",
    "properties": { "name": "urn:ogc:def:crs:OGC:1.3:CRS84" }
  },
  "features": [
    {
      "type": "Feature",
      "properties": { "name": "Dakar", "code": "DK", "medical_region": 1, "center": [-17.4677, 14.7167] },
      "geometry": { "type": "Polygon", "coordinates": [[[-17.55, 14.60], [-17.30, 14.60], [-17.30, 14.85], [-17.55, 14.85], [-17.55, 14.60]]] }
    },
    {
      "type": "Feature",
      "properties": { "name": "Thiès", "code": "TH", "medical_region": 1, "center": [-16.7567, 14.2420] },
      "geometry": { "type": "Polygon", "coordinates": [[[-17.10, 14.00], [-16.40, 14.00], [-16.40, 14.50], [-17.10, 14.50], [-17.10, 14.00]]] }
    },
    {
      "type": "Feature",
      "properties": { "name": "Diourbel", "code": "DB", "medical_region": 2, "center": [-16.2333, 14.6550] },
      "geometry": { "type": "Polygon", "coordinates": [[[-16.50, 14.40], [-15.90, 14.40], [-15.90, 14.90], [-16.50, 14.90], [-16.50, 14.40]]] }
    },
    {
      "type": "Feature",
      "properties": { "name": "Fatick", "code": "FK", "medical_region": 2, "center": [-16.4167, 14.3167] },
      "geometry": { "type": "Polygon", "coordinates": [[[-16.70, 14.00], [-16.10, 14.00], [-16.10, 14.60], [-16.70, 14.60], [-16.70, 14.00]]] }
    },
    {
      "type": "Feature",
      "properties": { "name": "Kaolack", "code": "KL", "medical_region": 2, "center": [-16.0833, 14.1500] },
      "geometry": { "type": "Polygon", "coordinates": [[[-16.40, 13.80], [-15.70, 13.80], [-15.70, 14.50], [-16.40, 14.50], [-16.40, 13.80]]] }
    },
    {
      "type": "Feature",
      "properties": { "name": "Kaffrine", "code": "KF", "medical_region": 2, "center": [-15.5500, 14.1167] },
      "geometry": { "type": "Polygon", "coordinates": [[[-15.90, 13.80], [-15.20, 13.80], [-15.20, 14.40], [-15.90, 14.40], [-15.90, 13.80]]] }
    },
    {
      "type": "Feature",
      "properties": { "name": "Kédougou", "code": "KE", "medical_region": 5, "center": [-12.1752, 12.5574] },
      "geometry": { "type": "Polygon", "coordinates": [[[-12.80, 12.00], [-11.50, 12.00], [-11.50, 13.10], [-12.80, 13.10], [-12.80, 12.00]]] }
    },
    {
      "type": "Feature",
      "properties": { "name": "Tambacounda", "code": "TC", "medical_region": 5, "center": [-13.6683, 13.7707] },
      "geometry": { "type": "Polygon", "coordinates": [[[-14.20, 13.00], [-12.80, 13.00], [-12.80, 14.50], [-14.20, 14.50], [-14.20, 13.00]]] }
    },
    {
      "type": "Feature",
      "properties": { "name": "Ziguinchor", "code": "ZG", "medical_region": 5, "center": [-16.2722, 12.5843] },
      "geometry": { "type": "Polygon", "coordinates": [[[-16.70, 12.20], [-15.80, 12.20], [-15.80, 12.90], [-16.70, 12.90], [-16.70, 12.20]]] }
    },
    {
      "type": "Feature",
      "properties": { "name": "Sédhiou", "code": "SD", "medical_region": 5, "center": [-15.5569, 12.7081] },
      "geometry": { "type": "Polygon", "coordinates": [[[-16.00, 12.40], [-15.10, 12.40], [-15.10, 13.00], [-16.00, 13.00], [-16.00, 12.40]]] }
    },
    {
      "type": "Feature",
      "properties": { "name": "Kolda", "code": "KD", "medical_region": 5, "center": [-14.9500, 12.8833] },
      "geometry": { "type": "Polygon", "coordinates": [[[-15.40, 12.50], [-14.50, 12.50], [-14.50, 13.30], [-15.40, 13.30], [-15.40, 12.50]]] }
    },
    {
      "type": "Feature",
      "properties": { "name": "Saint-Louis", "code": "SL", "medical_region": 3, "center": [-16.4952, 16.0304] },
      "geometry": { "type": "Polygon", "coordinates": [[[-16.80, 15.60], [-16.10, 15.60], [-16.10, 16.50], [-16.80, 16.50], [-16.80, 15.60]]] }
    },
    {
      "type": "Feature",
      "properties": { "name": "Louga", "code": "LG", "medical_region": 3, "center": [-16.2167, 15.6167] },
      "geometry": { "type": "Polygon", "coordinates": [[[-16.60, 15.20], [-15.80, 15.20], [-15.80, 16.00], [-16.60, 16.00], [-16.60, 15.20]]] }
    },
    {
      "type": "Feature",
      "properties": { "name": "Matam", "code": "MT", "medical_region": 4, "center": [-13.2553, 15.6559] },
      "geometry": { "type": "Polygon", "coordinates": [[[-13.80, 15.00], [-12.60, 15.00], [-12.60, 16.30], [-13.80, 16.30], [-13.80, 15.00]]] }
    }
  ]
}
